[{"OBJECT_NAME":"SHIYAN-6 01 (SY-6 01)","OBJECT_ID":"2018-094B","EPOCH":"2026-03-09T23:04:36.967872","MEAN_MOTION":15.28649156,"ECCENTRICITY":0.00144834,"INCLINATION":97.3669,"RA_OF_ASC_NODE":84.0964,"ARG_OF_PERICENTER":135.6758,"MEAN_ANOMALY":224.5644,"EPHEMERIS_TYPE":0,"CLASSIFICATION_TYPE":"U","NORAD_CAT_ID":43711,"ELEMENT_SET_NO":999,"REV_AT_EPOCH":40632,"BSTAR":0.00024768444,"MEAN_MOTION_DOT":6.847e-5,"MEAN_MOTION_DDOT":0},{"OBJECT_NAME":"STARLINK-5373","OBJECT_ID":"2023-015AT","EPOCH":"2026-03-09T22:00:01.999584","MEAN_MOTION":15.1336627,"ECCENTRICITY":0.0001701,"INCLINATION":42.9999,"RA_OF_ASC_NODE":337.3893,"ARG_OF_PERICENTER":260.8255,"MEAN_ANOMALY":48.0561,"EPHEMERIS_TYPE":0,"CLASSIFICATION_TYPE":"U","NORAD_CAT_ID":55490,"ELEMENT_SET_NO":999,"REV_AT_EPOCH":572,"BSTAR":0.06585946,"MEAN_MOTION_DOT":0.01296118,"MEAN_MOTION_DDOT":0}]
